NORAD_CAT_ID,OBJECT_NAME,OBJECT_TYPE,EPOCH,MEAN_MOTION,ECCENTRICITY,INCLINATION,RA_OF_ASC_NODE,ARG_OF_PERICENTER,MEAN_ANOMALY,BSTAR,MEAN_MOTION_DOT,MEAN_MOTION_DDOT,TLE_LINE0,TLE_LINE1,TLE_LINE2,SEMIMAJOR_AXIS,PERIOD,APOGEE,PERIGEE,DECAYED
56490.0,STARLINK-5873,PAYLOAD,2023-09-12 17:25:06,15.69924192,0.0003268,70.0,253.8408,269.702,90.3801,2.7879e-05,3.141e-05,0.0,0 STARLINK-5873,1 56490U 23064AU  23255.72576838  .00003141  00000-0  27879-4 0  9998,2 56490  70.0000 253.8408 0003268 269.7020  90.3801 15.69924192 19647,6737.251,91.724,361.318,356.914,0.0
56490.0,STARLINK-5873,PAYLOAD,2023-09-13 02:35:36,15.69933626,0.0003881,70.0018,252.7647,264.8232,95.2521,4.0342e-05,4.643e-05,0.0,0 STARLINK-5873,1 56490U 23064AU  23256.10806130  .00004643  00000-0  40342-4 0  9990,2 56490  70.0018 252.7647 0003881 264.8232  95.2521 15.69933626 20053,6737.224,91.724,361.704,356.474,0.0
56490.0,STARLINK-5873,PAYLOAD,2023-09-13 10:14:23,15.69909871,0.0002862,70.0001,251.8701,280.5599,79.5274,-2.6147e-05,-3.353e-05,0.0,0 STARLINK-5873,1 56490U 23064AU  23256.42665548 -.00003353  00000-0 -26147-4 0  9997,2 56490  70.0001 251.8701 0002862 280.5599  79.5274 15.69909871 20106,6737.292,91.725,361.085,357.229,0.0
56490.0,STARLINK-5873,PAYLOAD,2023-09-14 09:10:39,15.69924684,0.0003298,70.0006,249.182,273.1863,86.8955,2.5555e-05,2.861e-05,0.0,0 STARLINK-5873,1 56490U 23064AU  23257.38240447  .00002861  00000-0  25555-4 0  9993,2 56490  70.0006 249.1820 0003298 273.1863  86.8955 15.69924684 20251,6737.249,91.724,361.336,356.893,0.0
56490.0,STARLINK-5873,PAYLOAD,2023-09-14 12:14:09,15.69932266,0.0002981,70.0013,248.8237,275.0886,84.9969,4.2119e-05,4.856e-05,0.0,0 STARLINK-5873,1 56490U 23064AU  23257.50983482  .00004856  00000-0  42119-4 0  9991,2 56490  70.0013 248.8237 0002981 275.0886  84.9969 15.69932266 19922,6737.228,91.724,361.101,357.084,0.0
56490.0,STARLINK-5873,PAYLOAD,2023-09-14 16:49:25,15.69916159,0.0002961,70.0005,248.2864,273.6302,86.4555,5.3812e-06,4.34e-06,0.0,0 STARLINK-5873,1 56490U 23064AU  23257.70099104  .00000434  00000-0  53812-5 0  9993,2 56490  70.0005 248.2864 0002961 273.6302  86.4555 15.69916159 19952,6737.274,91.725,361.134,357.144,0.0
56490.0,STARLINK-5873,PAYLOAD,2023-09-15 09:38:41,15.6993738,0.0003194,70.0015,246.316,272.0799,88.0031,7.2823e-05,8.557e-05,0.0,0 STARLINK-5873,1 56490U 23064AU  23258.40186993  .00008557  00000-0  72823-4 0  9990,2 56490  70.0015 246.3160 0003194 272.0799  88.0031 15.69937380 20412,6737.213,91.723,361.23,356.926,0.0
56490.0,STARLINK-5873,PAYLOAD,2023-09-15 11:10:26,15.69941075,0.0003245,70.0017,246.137,271.5302,88.5522,9.2579e-05,0.00010941,0.0,0 STARLINK-5873,1 56490U 23064AU  23258.46558606  .00010941  00000-0  92579-4 0  9990,2 56490  70.0017 246.1370 0003245 271.5302  88.5522 15.69941075 20074,6737.203,91.723,361.254,356.881,0.0
56490.0,STARLINK-5873,PAYLOAD,2023-09-16 02:27:58,15.69932205,0.0003169,70.0018,244.3458,272.2053,87.878,5.5098e-05,6.419e-05,0.0,0 STARLINK-5873,1 56490U 23064AU  23259.10275475  .00006419  00000-0  55098-4 0  9992,2 56490  70.0018 244.3458 0003169 272.2053  87.8780 15.69932205 20521,6737.228,91.724,361.228,356.958,0.0
56490.0,STARLINK-5873,PAYLOAD,2023-09-16 11:38:28,15.69926221,0.0003905,70.0021,243.2704,267.5326,92.5423,2.3924e-05,2.665e-05,0.0,0 STARLINK-5873,1 56490U 23064AU  23259.48505376  .00002665  00000-0  23924-4 0  9991,2 56490  70.0021 243.2704 0003905 267.5326  92.5423 15.69926221 20231,6737.245,91.724,361.741,356.479,0.0
56490.0,STARLINK-5873,PAYLOAD,2023-09-17 01:24:14,15.69931477,0.0003468,70.002,241.6584,270.2006,89.8793,0.00010294,0.00012187,0.0,0 STARLINK-5873,1 56490U 23064AU  23260.05850589  .00012187  00000-0  10294-3 0  9990,2 56490  70.0020 241.6584 0003468 270.2006  89.8793 15.69931477 20674,6737.23,91.724,361.432,356.759,0.0
56490.0,STARLINK-5873,PAYLOAD,2023-09-17 10:34:45,15.69914498,0.000364,70.0017,240.5834,265.4165,94.6615,-4.4268e-05,-5.53e-05,0.0,0 STARLINK-5873,1 56490U 23064AU  23260.44080602 -.00005530  00000-0 -44268-4 0  9999,2 56490  70.0017 240.5834 0003640 265.4165  94.6615 15.69914498 20389,6737.279,91.725,361.596,356.691,0.0
56490.0,STARLINK-5873,PAYLOAD,2023-09-18 01:52:16,15.69939212,0.0003469,70.0013,238.7924,271.8344,88.2455,0.0001261,0.00014986,0.0,0 STARLINK-5873,1 56490U 23064AU  23261.07797267  .00014986  00000-0  12610-3 0  9999,2 56490  70.0013 238.7924 0003469 271.8344  88.2455 15.69939212 20835,6737.208,91.723,361.41,356.736,0.0
56490.0,STARLINK-5873,PAYLOAD,2023-09-18 07:59:17,15.69928587,0.0003416,70.001,238.0751,272.9845,87.0959,5.2231e-05,6.073e-05,0.0,0 STARLINK-5873,1 56490U 23064AU  23261.33284026  .00006073  00000-0  52231-4 0  9994,2 56490  70.0010 238.0751 0003416 272.9845  87.0959 15.69928587 20876,6737.238,91.724,361.405,356.802,0.0
56490.0,STARLINK-5873,PAYLOAD,2023-09-18 11:02:47,15.69933409,0.0003468,70.0019,237.7179,272.3175,87.7623,5.7386e-05,6.696e-05,0.0,0 STARLINK-5873,1 56490U 23064AU  23261.46027243  .00006696  00000-0  57386-4 0  9991,2 56490  70.0019 237.7179 0003468 272.3175  87.7623 15.69933409 20540,6737.225,91.724,361.426,356.753,0.0
56490.0,STARLINK-5873,PAYLOAD,2023-09-18 15:38:02,15.69931442,0.0003362,70.0016,237.1794,271.5164,88.5646,4.748e-05,5.502e-05,0.0,0 STARLINK-5873,1 56490U 23064AU  23261.65142279  .00005502  00000-0  47480-4 0  9998,2 56490  70.0016 237.1794 0003362 271.5164  88.5646 15.69931442 20578,6737.23,91.724,361.36,356.83,0.0
56490.0,STARLINK-5873,PAYLOAD,2023-09-19 08:27:18,15.69945767,0.0003213,70.0021,235.209,270.3618,89.7209,7.5945e-05,8.937e-05,0.0,0 STARLINK-5873,1 56490U 23064AU  23262.35230021  .00008937  00000-0  75945-4 0  9991,2 56490  70.0021 235.2090 0003213 270.3618  89.7209 15.69945767 21033,6737.189,91.723,361.219,356.89,0.0
56490.0,STARLINK-5873,PAYLOAD,2023-09-19 09:59:03,15.69959276,0.0003162,70.0007,235.0298,276.0393,84.0443,0.00013079,0.00015565,0.0,0 STARLINK-5873,1 56490U 23064AU  23262.41601396  .00015565  00000-0  13079-3 0  9999,2 56490  70.0007 235.0298 0003162 276.0393  84.0443 15.69959276 21040,6737.151,91.722,361.146,356.885,0.0
56490.0,STARLINK-5873,PAYLOAD,2023-09-20 01:16:36,15.69907816,0.0003185,70.0018,233.2384,267.1098,92.9733,-4.4587e-05,-5.566e-05,0.0,0 STARLINK-5873,1 56490U 23064AU  23263.05319556 -.00005566  00000-0 -44587-4 0  9995,2 56490  70.0018 233.2384 0003185 267.1098  92.9733 15.69907816 21140,6737.298,91.725,361.309,357.017,0.0
56490.0,STARLINK-5873,PAYLOAD,2023-09-20 07:23:36,15.69915531,0.0002818,70.0023,232.5234,268.4848,91.6025,9.7926e-06,9.65e-06,0.0,0 STARLINK-5873,1 56490U 23064AU  23263.30806389  .00000965  00000-0  97926-5 0  9990,2 56490  70.0023 232.5234 0002818 268.4848  91.6025 15.69915531 21188,6737.276,91.725,361.039,357.242,0.0
56490.0,STARLINK-5873,PAYLOAD,2023-09-20 10:27:06,15.69931168,0.0003608,70.0018,232.1635,264.3089,95.7695,7.0469e-05,8.272e-05,0.0,0 STARLINK-5873,1 56490U 23064AU  23263.43549257  .00008272  00000-0  70469-4 0  9993,2 56490  70.0018 232.1635 0003608 264.3089  95.7695 15.69931168 20858,6737.231,91.724,361.527,356.665,0.0
56490.0,STARLINK-5873,PAYLOAD,2023-09-20 21:09:22,15.69916264,0.0003883,70.0032,230.9106,263.8242,96.2511,7.2911e-05,8.561e-05,0.0,0 STARLINK-5873,1 56490U 23064AU  23263.88151495  .00008561  00000-0  72911-4 0  9990,2 56490  70.0032 230.9106 0003883 263.8242  96.2511 15.69916264 20924,6737.274,91.725,361.755,356.522,0.0
56490.0,STARLINK-5873,PAYLOAD,2023-09-21 01:44:37,15.69946632,0.0002894,70.0027,230.3725,239.4056,120.6855,0.0001648,0.00019667,0.0,0 STARLINK-5873,1 56490U 23064AU  23264.07265987  .00019667  00000-0  16480-3 0  9991,2 56490  70.0027 230.3725 0002894 239.4056 120.6855 15.69946632 21300,6737.187,91.723,361.001,357.102,0.0
56490.0,STARLINK-5873,PAYLOAD,2023-09-21 09:23:23,15.69925734,0.0002866,70.0021,229.4774,279.0789,81.0082,2.7284e-05,3.069e-05,0.0,0 STARLINK-5873,1 56490U 23064AU  23264.39124942  .00003069  00000-0  27284-4 0  9995,2 56490  70.0021 229.4774 0002866 279.0789  81.0082 15.69925734 21356,6737.246,91.724,361.042,357.181,0.0
56490.0,STARLINK-5873,PAYLOAD,2023-09-21 21:37:24,15.69935946,0.0003364,70.0026,228.0443,271.4882,88.5928,5.8559e-05,6.838e-05,0.0,0 STARLINK-5873,1 56490U 23064AU  23264.90097819  .00006838  00000-0  58559-4 0  9990,2 56490  70.0026 228.0443 0003364 271.4882  88.5928 15.69935946 21080,6737.217,91.723,361.349,356.816,0.0
56490.0,STARLINK-5873,PAYLOAD,2023-09-22 06:47:55,15.69933394,0.0002657,70.0026,226.9702,267.8229,92.2662,5.3969e-05,6.284e-05,0.0,0 STARLINK-5873,1 56490U 23064AU  23265.28327942  .00006284  00000-0  53969-4 0  9990,2 56490  70.0026 226.9702 0002657 267.8229  92.2662 15.69933394 21142,6737.225,91.724,360.88,357.299,0.0
56490.0,STARLINK-5873,PAYLOAD,2023-09-22 22:05:26,15.6993813,0.0002898,70.0027,225.1793,253.1536,106.9342,6.2819e-05,7.351e-05,0.0,0 STARLINK-5873,1 56490U 23064AU  23265.92044285  .00007351  00000-0  62819-4 0  9997,2 56490  70.0027 225.1793 0002898 253.1536 106.9342 15.69938130 21242,6737.211,91.723,361.028,357.124,0.0
56490.0,STARLINK-5873,PAYLOAD,2023-09-23 01:08:56,15.69938488,0.0002681,70.0032,224.8211,247.9123,112.1788,6.166e-05,7.212e-05,0.0,0 STARLINK-5873,1 56490U 23064AU  23266.04787563  .00007212  00000-0  61660-4 0  9993,2 56490  70.0032 224.8211 0002681 247.9123 112.1788 15.69938488 21612,6737.21,91.723,360.881,357.269,0.0
56490.0,STARLINK-5873,PAYLOAD,2023-09-23 07:15:57,15.69925663,0.0003347,70.0015,224.1037,268.8029,91.2783,3.3253e-05,3.788e-05,0.0,0 STARLINK-5873,1 56490U 23064AU  23266.30274593  .00003788  00000-0  33253-4 0  9997,2 56490  70.0015 224.1037 0003347 268.8029  91.2783 15.69925663 21656,6737.247,91.724,361.367,356.857,0.0
56490.0,STARLINK-5873,PAYLOAD,2023-09-24 07:43:59,15.69925826,0.0003619,70.0003,221.2367,265.2123,94.866,1.1263e-05,1.142e-05,0.0,0 STARLINK-5873,1 56490U 23064AU  23267.32221209  .00001142  00000-0  11263-4 0  9995,2 56490  70.0003 221.2367 0003619 265.2123  94.8660 15.69925826 21817,6737.246,91.724,361.549,356.673,0.0
